CREW DRAGON 9           
1 61447U 24178A   24279.79195405  .00031326  00000+0  56846-3 0  9994
2 61447  51.6361 127.5460 0009172  40.4137 319.7532 15.49263048475502
STARLINK-11300 [DTC]    
1 61243U 24175A   24279.91667824 -.00933620  00000+0 -59579-2 0  9993
2 61243  53.1657 100.4630 0000820  47.1827 343.3802 15.78179610  2750
STARLINK-11276 [DTC]    
1 61244U 24175B   24279.91667824 -.00935635  00000+0 -56176-2 0  9992
2 61244  53.1657 100.4162 0000965  52.1014   1.3063 15.79519496  2598
STARLINK-11280 [DTC]    
1 61245U 24175C   24279.91667824 -.00936309  00000+0 -49867-2 0  9991
2 61245  53.1657 100.3392 0000968  50.3233  40.5479 15.82096247  2863
STARLINK-11308 [DTC]    
1 61246U 24175D   24279.91667824 -.00935136  00000+0 -52875-2 0  9992
2 61246  53.1658 100.3747 0001026  42.9095  30.5853 15.80815677  2597
STARLINK-11305 [DTC]    
1 61247U 24175E   24279.91667824 -.00931941  00000+0 -46786-2 0  9997
2 61247  53.1656 100.3078 0001021  46.1113  59.8279 15.83330210  2915
STARLINK-11317 [DTC]    
1 61248U 24175F   24280.25001157 -.00957148  00000+0 -46973-2 0  9993
2 61248  53.1652  98.6011 0000940  84.7241 135.9039 15.83867528  2756
STARLINK-11293 [DTC]    
1 61249U 24175G   24280.25001157  .00039001  00000+0  17499-3 0  9993
2 61249  53.1652  98.5760 0000900  79.8959 153.1990 15.83772748  2964
STARLINK-11334 [DTC]    
1 61250U 24175H   24279.91667824 -.00511601  00000+0 -22797-2 0  9994
2 61250  53.1654 100.2306 0000962  46.1098  97.2406 15.84798860  2597
STARLINK-11319 [DTC]    
1 61251U 24175J   24279.91667824 -.00486993  00000+0 -21046-2 0  9996
2 61251  53.1651 100.2086 0000876  41.5340 112.5130 15.85373038  2911
STARLINK-11318 [DTC]    
1 61252U 24175K   24279.91667824 -.00467553  00000+0 -19658-2 0  9994
2 61252  53.1650 100.1873 0000926  40.1932 124.0078 15.85891157  2592
STARLINK-11311 [DTC]    
1 61253U 24175L   24279.91667824 -.00451615  00000+0 -18519-2 0  9992
2 61253  53.1649 100.1666 0000917  39.9390 134.1445 15.86364399  2869
STARLINK-11306 [DTC]    
1 61254U 24175M   24279.91667824 -.00436971  00000+0 -17506-2 0  9996
2 61254  53.1648 100.1470 0000856  40.6302 142.9529 15.86803825  2914
STARLINK-11313 [DTC]    
1 61255U 24175N   24279.91667824 -.00418130  00000+0 -16379-2 0  9991
2 61255  53.1646 100.1317 0000849  39.9610 151.0894 15.87214561  2705
STARLINK-32431          
1 61256U 24175P   24279.91667824 -.00752773  00000+0 -36015-2 0  9995
2 61256  53.1640 100.1441 0001130  50.5453 133.9046 15.83897164  2908
STARLINK-32432          
1 61257U 24175Q   24279.91667824 -.00744827  00000+0 -35639-2 0  9998
2 61257  53.1640 100.1503 0000995  45.1831 136.2916 15.83876619  2900
STARLINK-32382          
1 61258U 24175R   24279.91667824 -.00813792  00000+0 -39040-2 0  9997
2 61258  53.1636 100.1115 0000965  42.7494 157.4200 15.83989536  2656
STARLINK-32435          
1 61259U 24175S   24279.91667824 -.00771701  00000+0 -36980-2 0  9991
2 61259  53.1640 100.1358 0001062  50.7766 137.9439 15.83909876  2860
STARLINK-32474          
1 61260U 24175T   24279.91667824 -.00777219  00000+0 -37219-2 0  9999
2 61260  53.1641 100.1315 0001016  45.2349 145.4523 15.83937824  2863
STARLINK-32447          
1 61261U 24175U   24279.91667824 -.00805923  00000+0 -38674-2 0  9990
2 61261  53.1640 100.1163 0001071  50.4988 147.5106 15.83963409  2905
STARLINK-32446          
1 61262U 24175V   24279.91667824 -.00793478  00000+0 -38044-2 0  9993
2 61262  53.1641 100.1238 0000999  43.8739 150.5493 15.83951847  2915
2024-174F               
1 61263U 24174F   24279.96541633  .00216096  14284-4  14438-2 0  9996
2 61263  97.4333 285.6893 0175264 351.0486   8.7654 15.57128003  1667
2024-174G               
1 61443U 24174G   24279.88465720  .00529371  81571-4  31176-2 0  9993
2 61443  97.4305 285.6424 0159644 351.2037   8.6428 15.62263518  1467
SHIJIAN-19 (SJ-19)      
1 61444U 24177A   24279.89869623  .00020407  00000+0  11633-3 0  9994
2 61444  41.6003 106.8345 0007535 354.2323   5.8437 15.78398286  1481
CZ-2D R/B               
1 61445U 24177B   24279.82578003  .00263640  00000+0  11579-2 0  9993
2 61445  41.3914 106.9119 0020279 312.6448  47.2688 15.82737664  1330
2024-179A               
1 61448U 24179A   24278.48676111  .00000148  00000+0  00000+0 0  9994
2 61448  30.0000 357.3088 0004000 321.8000 177.5900 15.23529867    07
