OBJECT_NAME,OBJECT_ID,EPOCH,MEAN_MOTION,ECCENTRICITY,INCLINATION,RA_OF_ASC_NODE,ARG_OF_PERICENTER,MEAN_ANOMALY,EPHEMERIS_TYPE,CLASSIFICATION_TYPE,NORAD_CAT_ID,ELEMENT_SET_NO,REV_AT_EPOCH,BSTAR,MEAN_MOTION_DOT,MEAN_MOTION_DDOT
STARLINK-11300 [DTC],2024-175A,2024-10-05T22:00:00.999936,15.7817961,8.2e-05,53.1657,100.463,47.1827,343.3802,0,U,61243,999,275,-0.0059579,-0.0093362,0
STARLINK-11276 [DTC],2024-175B,2024-10-05T22:00:00.999936,15.79519496,9.65e-05,53.1657,100.4162,52.1014,1.3063,0,U,61244,999,259,-0.0056176,-0.00935635,0
STARLINK-11280 [DTC],2024-175C,2024-10-05T22:00:00.999936,15.82096247,9.68e-05,53.1657,100.3392,50.3233,40.5479,0,U,61245,999,286,-0.0049867,-0.00936309,0
STARLINK-11308 [DTC],2024-175D,2024-10-05T22:00:00.999936,15.80815677,0.0001026,53.1658,100.3747,42.9095,30.5853,0,U,61246,999,259,-0.0052875,-0.00935136,0
STARLINK-11305 [DTC],2024-175E,2024-10-05T22:00:00.999936,15.8333021,0.0001021,53.1656,100.3078,46.1113,59.8279,0,U,61247,999,291,-0.0046786,-0.00931941,0
STARLINK-11317 [DTC],2024-175F,2024-10-06T06:00:00.999648,15.83867528,9.4e-05,53.1652,98.6011,84.7241,135.9039,0,U,61248,999,275,-0.0046973,-0.00957148,0
STARLINK-11293 [DTC],2024-175G,2024-10-06T06:00:00.999648,15.83772748,9e-05,53.1652,98.576,79.8959,153.199,0,U,61249,999,296,0.00017499,0.00039001,0
STARLINK-11334 [DTC],2024-175H,2024-10-05T22:00:00.999936,15.8479886,9.62e-05,53.1654,100.2306,46.1098,97.2406,0,U,61250,999,259,-0.0022797,-0.00511601,0
STARLINK-11319 [DTC],2024-175J,2024-10-05T22:00:00.999936,15.85373038,8.76e-05,53.1651,100.2086,41.534,112.513,0,U,61251,999,291,-0.0021046,-0.00486993,0
STARLINK-11318 [DTC],2024-175K,2024-10-05T22:00:00.999936,15.85891157,9.26e-05,53.165,100.1873,40.1932,124.0078,0,U,61252,999,259,-0.0019658,-0.00467553,0
STARLINK-11311 [DTC],2024-175L,2024-10-05T22:00:00.999936,15.86364399,9.17e-05,53.1649,100.1666,39.939,134.1445,0,U,61253,999,286,-0.0018519,-0.00451615,0
STARLINK-11306 [DTC],2024-175M,2024-10-05T22:00:00.999936,15.86803825,8.56e-05,53.1648,100.147,40.6302,142.9529,0,U,61254,999,291,-0.0017506,-0.00436971,0
STARLINK-11313 [DTC],2024-175N,2024-10-05T22:00:00.999936,15.87214561,8.49e-05,53.1646,100.1317,39.961,151.0894,0,U,61255,999,270,-0.0016379,-0.0041813,0
STARLINK-32431,2024-175P,2024-10-05T22:00:00.999936,15.83897164,0.000113,53.164,100.1441,50.5453,133.9046,0,U,61256,999,290,-0.0036015,-0.00752773,0
STARLINK-32432,2024-175Q,2024-10-05T22:00:00.999936,15.83876619,9.95e-05,53.164,100.1503,45.1831,136.2916,0,U,61257,999,290,-0.0035639,-0.00744827,0
STARLINK-32382,2024-175R,2024-10-05T22:00:00.999936,15.83989536,9.65e-05,53.1636,100.1115,42.7494,157.42,0,U,61258,999,265,-0.003904,-0.00813792,0
STARLINK-32435,2024-175S,2024-10-05T22:00:00.999936,15.83909876,0.0001062,53.164,100.1358,50.7766,137.9439,0,U,61259,999,286,-0.003698,-0.00771701,0
STARLINK-32474,2024-175T,2024-10-05T22:00:00.999936,15.83937824,0.0001016,53.1641,100.1315,45.2349,145.4523,0,U,61260,999,286,-0.0037219,-0.00777219,0
STARLINK-32447,2024-175U,2024-10-05T22:00:00.999936,15.83963409,0.0001071,53.164,100.1163,50.4988,147.5106,0,U,61261,999,290,-0.0038674,-0.00805923,0
STARLINK-32446,2024-175V,2024-10-05T22:00:00.999936,15.83951847,9.99e-05,53.1641,100.1238,43.8739,150.5493,0,U,61262,999,291,-0.0038044,-0.00793478,0
2024-174F,2024-174F,2024-10-05T23:10:11.970912,15.57128003,0.0175264,97.4333,285.6893,351.0486,8.7654,0,U,61263,999,166,0.0014438,0.00216096,1.4284e-05
2024-174G,2024-174G,2024-10-05T21:13:54.382080,15.62263518,0.0159644,97.4305,285.6424,351.2037,8.6428,0,U,61443,999,146,0.0031176,0.00529371,8.1571e-05
SHIJIAN-19 (SJ-19),2024-177A,2024-10-05T21:34:07.354272,15.78398286,0.0007535,41.6003,106.8345,354.2323,5.8437,0,U,61444,999,148,0.00011633,0.00020407,0
CZ-2D R/B,2024-177B,2024-10-05T19:49:07.394592,15.82737664,0.0020279,41.3914,106.9119,312.6448,47.2688,0,U,61445,999,133,0.0011579,0.0026364,0
CREW DRAGON 9,2024-178A,2024-10-05T19:00:24.829920,15.49263048,0.0009172,51.6361,127.546,40.4137,319.7532,0,U,61447,999,47550,0.00056846,0.00031326,0
2024-179A,2024-179A,2024-10-04T11:40:56.159904,15.23529867,0.0004,30,357.3088,321.8,177.59,0,U,61448,999,0,0,1.48e-06,0
